{"type":"FeatureCollection","features":[{"type":"Feature","geometry":{"type":"LineString","coordinates":[[-93.35814559999994,44.785764200000074],[-93.35692469999998,44.78542340000007],[-93.35645409999995,44.78538460000004],[-93.35573959999994,44.78544040000003],[-93.35491359999997,44.78573780000005],[-93.35457659999997,44.78599340000005],[-93.35432119999996,44.78655950000007],[-93.35307229999995,44.78857210000007],[-93.35151949999994,44.79044310000006],[-93.35108819999994,44.79079890000003],[-93.35036779999996,44.791144100000054],[-93.34986139999995,44.791287200000056],[-93.34903209999999,44.79138380000006],[-93.34776759999994,44.791266300000075],[-93.34734989999998,44.79114160000006],[-93.34662389999994,44.79074980000007],[-93.34553189999997,44.789899200000036],[-93.34351249999997,44.78850460000007],[-93.34155909999998,44.78745200000003],[-93.34105119999998,44.78709330000004],[-93.33987509999997,44.78667840000003],[-93.33880949999997,44.78640880000006],[-93.33787229999996,44.78626000000003],[-93.33670629999995,44.78625600000004],[-93.33606139999995,44.78635600000007],[-93.33476959999996,44.78691500000008],[-93.33015189999998,44.79073800000003],[-93.32834509999998,44.79184150000003],[-93.32734159999995,44.79236250000008],[-93.32660329999999,44.79258910000004],[-93.32584019999996,44.79272940000004],[-93.32508859999996,44.79277470000005],[-93.32122119999997,44.79282180000007],[-93.31432799999999,44.79251030000006],[-93.31331139999998,44.79256370000007],[-93.31093939999994,44.79303980000003],[-93.30780679999998,44.79388880000005],[-93.30412399999994,44.79468980000007],[-93.30324009999998,44.79503050000005],[-93.30251049999998,44.79545180000008],[-93.29868909999999,44.797310700000025],[-93.29461109999994,44.798988300000076],[-93.29295349999995,44.79950780000007],[-93.29070019999995,44.80009540000003],[-93.28811919999998,44.80064260000006],[-93.28681029999996,44.80107000000004],[-93.28576959999998,44.801617400000055],[-93.28517629999999,44.80216440000004],[-93.28440529999995,44.80332130000005],[-93.28397199999995,44.80432150000007],[-93.28319609999994,44.805247000000065],[-93.28225779999997,44.80585610000003],[-93.28079179999997,44.80637150000007],[-93.27961539999995,44.80655690000003],[-93.27833519999996,44.80665570000008],[-93.27526109999997,44.806669500000055],[-93.27168549999999,44.80701990000006],[-93.27031709999994,44.807232000000056],[-93.26396239999997,44.808580300000074],[-93.25992239999994,44.809650400000066],[-93.25503839999999,44.81059940000006],[-93.25286129999995,44.811181600000054],[-93.25196919999996,44.81163830000003],[-93.25100319999996,44.812173200000075],[-93.25049059999998,44.81257180000006],[-93.24950969999998,44.813977400000056],[-93.24890429999994,44.814636000000064],[-93.24691649999994,44.815973900000074],[-93.24394659999996,44.81750530000005],[-93.24245969999998,44.81835710000007],[-93.23981189999995,44.82009140000008],[-93.23763049999997,44.82194050000004],[-93.23490559999999,44.82470740000008],[-93.23384429999999,44.825527900000054],[-93.23091359999995,44.827534300000025],[-93.22938379999994,44.82838600000008],[-93.22741849999994,44.82915420000006],[-93.22149639999998,44.83078930000005],[-93.22035739999995,44.83123740000008],[-93.21921949999995,44.831982700000026],[-93.21808259999995,44.832968900000026],[-93.21348889999996,44.837630700000034],[-93.20983819999998,44.84112300000004],[-93.20839539999997,44.84267130000006],[-93.20766199999997,44.84386010000003],[-93.20450459999995,44.850771200000054],[-93.20397899999995,44.852121200000056],[-93.20344999999998,44.85374290000004],[-93.20315699999998,44.85525890000008],[-93.20299339999997,44.85719890000007],[-93.20292169999999,44.86104820000003],[-93.20267099999995,44.86247320000007],[-93.20191499999999,44.863935500000025],[-93.20103369999998,44.864909700000055],[-93.19969979999996,44.86593360000006],[-93.19829649999997,44.86681500000003],[-93.19723299999998,44.86739270000004],[-93.19625399999995,44.86778840000005],[-93.19425069999994,44.86877860000004],[-93.19238179999996,44.86975150000006],[-93.19107169999995,44.870552400000065],[-93.18973049999994,44.87177420000006],[-93.18934429999996,44.87239610000006],[-93.18857349999996,44.87417240000008],[-93.18803169999995,44.87490980000007],[-93.18732909999994,44.875562400000035],[-93.18652089999995,44.87607890000004],[-93.18514619999996,44.87668720000005],[-93.18348289999994,44.87717740000005],[-93.18197619999995,44.87774480000007],[-93.18074009999998,44.87838700000003],[-93.17869049999996,44.880160500000045],[-93.17610649999995,44.882795900000076],[-93.17333229999997,44.88539530000003],[-93.17175979999996,44.88655240000003],[-93.17018679999995,44.887572300000045],[-93.16732899999994,44.88926850000007],[-93.16428599999995,44.89051430000006],[-93.16267839999995,44.890949000000035],[-93.15667369999994,44.89195700000005],[-93.15541709999997,44.89226620000005],[-93.15475529999998,44.89252340000007],[-93.15349529999997,44.89324590000007],[-93.15163529999995,44.89466740000006],[-93.15029799999996,44.89603080000006],[-93.14627019999995,44.899346800000046],[-93.05188459999994,44.92138760000006],[-93.05190239999996,44.91979500000008],[-93.05169419999999,44.919056400000045],[-93.04948239999999,44.91665440000003],[-93.04900819999995,44.916229300000055],[-93.04780109999996,44.915393900000026],[-93.28134009999997,45.02916970000007],[-93.27978189999999,45.02669380000003],[-93.27837779999999,45.02379970000004],[-93.27769509999996,45.02197910000007],[-93.27681189999998,45.01911590000003],[-93.27526849999998,45.01554610000005],[-93.27464519999995,45.01328390000003],[-93.27449329999996,45.011843800000065],[-93.27454299999994,45.00875690000004],[-93.27425739999995,45.00293850000003],[-93.27437949999995,45.00152060000005],[-93.27488709999994,44.998506500000076],[-93.27492219999999,44.997042700000065],[-93.27478939999997,44.99617790000008],[-93.27433729999996,44.99484540000003],[-93.27402789999996,44.99410780000005],[-93.27345689999999,44.99339390000006],[-93.27161339999998,44.99176320000004],[-93.26967239999999,44.99081190000004],[-93.26730789999999,44.98929400000003],[-93.26655259999995,44.98858610000008],[-93.26436359999997,44.98528550000003],[-93.26368409999998,44.984646800000064],[-93.26088239999996,44.98246980000005],[-93.25954729999995,44.981777700000066],[-93.25880079999996,44.98145080000006],[-93.25590269999998,44.98044810000005],[-93.25392099999999,44.97964600000006],[-93.25257259999995,44.97929050000005],[-93.24895109999994,44.978850400000056],[-93.24410069999999,44.978368200000034],[-93.24276209999994,44.97812300000004],[-93.24178069999994,44.97775470000005],[-93.24044559999999,44.97682020000008],[-93.23990199999997,44.976080900000056],[-93.23947779999997,44.97475560000004],[-93.23890709999995,44.97209780000003],[-93.23859299999998,44.97114480000005],[-93.23812329999998,44.97050550000006],[-93.23722129999999,44.969721400000026],[-93.23676249999994,44.96948800000007],[-93.23555689999995,44.96912750000007],[-93.23131629999995,44.96843220000005],[-93.22992219999998,44.96807210000003],[-93.22765789999994,44.96722290000008],[-93.22691569999995,44.96687000000003],[-93.22593109999997,44.96630030000006],[-93.22455779999996,44.96515970000007],[-93.22360429999998,44.964292700000044],[-93.22102249999995,44.96161180000007],[-93.21988619999996,44.960550100000034],[-93.21867449999996,44.95945530000006],[-93.21730539999999,44.958408200000065],[-93.21639779999998,44.95782440000005],[-93.21301029999995,44.956173000000035],[-93.20997269999998,44.95449320000006],[-93.20845489999994,44.95356990000005],[-93.20670239999998,44.952766300000064],[-93.20499369999999,44.95217480000008],[-93.20315529999999,44.95133210000006],[-93.20259029999994,44.95093300000008],[-93.20165279999998,44.94986000000006],[-93.20094769999997,44.94820630000004],[-93.20056469999997,44.94692250000003],[-93.19996109999994,44.94271160000005],[-93.19953599999997,44.93833970000003],[-93.19975129999995,44.935435400000074],[-93.20038889999995,44.932673700000066],[-93.20129409999998,44.92693660000003],[-93.20171249999999,44.925531300000046],[-93.20233039999994,44.92269290000007],[-93.20265909999995,44.920144900000025],[-93.20287519999994,44.916090000000054],[-93.20241029999994,44.91342290000006],[-93.20070839999994,44.909836100000064],[-93.20017479999996,44.909059600000035],[-93.19920719999999,44.90807630000006],[-93.19809469999996,44.90736940000005],[-93.19511269999998,44.90599300000008],[-93.19227629999995,44.904500100000064],[-93.19132479999996,44.90378140000007],[-93.19098589999999,44.90312860000006],[-93.19096069999995,44.90035050000006],[-93.19051899999994,44.89839690000008],[-93.19005379999999,44.89753140000005],[-93.18917699999997,44.89635380000004],[-93.18806399999994,44.895395300000075],[-93.18718759999996,44.89499690000008],[-93.18640529999999,44.894757800000036],[-93.18508479999997,44.89452240000003],[-93.18185179999995,44.89422780000007],[-93.17533249999997,44.89382080000007],[-93.17150829999997,44.89374070000008],[-93.16809889999996,44.89389440000008],[-93.16563899999994,44.89420670000004],[-93.16409589999995,44.89457480000004],[-93.16195889999995,44.89535520000004],[-93.15758889999995,44.89714490000006],[-93.15696189999994,44.897294300000056],[-93.15636709999995,44.89742090000004],[-93.15512879999994,44.89750260000005],[-93.15306839999994,44.897497300000055],[-93.15098319999998,44.89764310000004],[-93.14901799999996,44.89808240000008],[-93.14739759999998,44.89872960000008],[-93.14580489999997,44.89961850000003],[-93.13825679999997,44.90469260000003],[-93.13674759999998,44.905963400000076],[-93.13599339999996,44.90676460000003],[-93.13498269999997,44.90795480000003],[-93.13413319999995,44.90930490000005],[-93.13352469999995,44.91054030000004],[-93.13290069999994,44.91207300000008],[-93.13167129999994,44.91617880000007],[-93.13071269999995,44.917629300000044],[-93.12852549999997,44.91971500000005],[-93.12676749999997,44.92077040000004],[-93.12521319999996,44.92142930000006],[-93.12352599999997,44.92200710000003],[-93.12176759999994,44.922448700000075],[-93.11791239999997,44.923213400000066],[-93.11652919999995,44.923569300000054],[-93.11313439999998,44.924845600000026],[-93.11234129999997,44.92534000000006],[-93.11160959999995,44.925929300000064],[-93.10861879999999,44.92876510000008],[-93.10614789999994,44.931330700000046],[-93.10428489999998,44.93353890000003],[-93.10232329999997,44.93564150000003],[-93.09793779999995,44.93966100000006],[-93.09547769999995,44.94130930000006],[-93.09423929999997,44.94195060000004],[-93.09278759999995,44.94258010000004],[-93.08595449999996,44.94483640000004],[-93.07786179999994,44.94707210000007],[-93.07711979999999,44.94724350000007],[-93.07575159999999,44.94740450000006],[-93.07176269999997,44.947344900000076],[-93.07083719999997,44.94728580000003],[-93.06974329999997,44.94710720000006],[-93.06423789999997,44.945664100000045],[-93.06047049999995,44.94433830000003],[-93.05781319999994,44.943219200000044],[-93.05523629999999,44.94182570000004],[-93.05406029999995,44.94093460000005],[-93.05286799999999,44.939746100000036],[-93.05196449999994,44.93865080000006],[-93.05128749999994,44.93757640000007],[-93.05017239999995,44.93486980000006],[-93.04959409999998,44.932442200000025],[-93.04952879999996,44.93140180000006],[-93.04960829999999,44.930201400000044],[-93.05000929999994,44.92865780000005],[-93.05180709999996,44.92466880000006],[-93.05191709999997,44.92176480000006],[-93.05177139999995,44.920827400000064],[-93.05152949999996,44.92021020000004],[-93.05080439999995,44.919124400000044],[-93.04573069999998,44.912758600000075],[-93.04456029999994,44.91067540000006],[-93.04279769999994,44.90638030000008],[-93.04179919999996,44.904825800000026],[-93.04102629999994,44.90384290000003],[-93.03903029999998,44.90195720000003],[-93.03545729999996,44.89900870000008],[-93.03398969999995,44.89808350000004],[-93.03117739999999,44.89680350000003],[-93.02630849999997,44.89511740000006],[-93.02163889999997,44.89335120000004],[-93.02080239999998,44.89285980000005],[-93.01978769999994,44.89183280000003],[-93.01790499999998,44.889054900000076],[-93.01700389999996,44.88738590000003],[-93.01590969999995,44.88500810000005],[-93.01494399999996,44.88190990000004],[-93.01478589999994,44.88030960000003],[-93.01481469999999,44.87934900000005],[-93.01528019999995,44.87493950000004],[-93.01511859999994,44.87320960000005],[-93.01486109999996,44.87223790000007],[-93.01375119999994,44.86990570000006],[-93.01264149999997,44.86829380000006],[-93.00997209999997,44.86494430000005],[-93.00923239999997,44.86340100000007],[-93.00892679999998,44.862429200000065],[-93.00846019999994,44.85976540000007],[-93.00852409999999,44.85663280000006],[-93.00889329999995,44.85375170000003],[-93.00972519999999,44.84939840000004],[-93.01132129999996,44.84433210000003],[-93.01173599999998,44.842661700000065],[-93.01241499999998,44.838972900000044],[-93.01252219999998,44.83740250000005],[-93.01242549999995,44.83604200000008],[-93.01218429999994,44.834830200000056],[-93.01133199999998,44.83145760000008],[-93.01044249999995,44.82865300000003],[-93.00986429999995,44.82715940000003],[-93.00808549999994,44.82362640000008],[-93.00655909999995,44.82114560000008],[-93.00591639999999,44.81987660000004],[-93.00549859999995,44.81871040000004],[-93.00520939999996,44.817544300000066],[-93.00522529999995,44.81566930000008],[-93.00553029999998,44.81397720000007],[-93.00618549999996,44.81244780000003],[-93.00683099999998,44.81134760000003],[-93.00885429999994,44.808660700000075],[-93.00970529999995,44.80770030000008],[-93.01164819999997,44.80595090000003],[-93.01346259999997,44.804624500000045],[-93.01681839999998,44.802543300000025],[-93.01795829999998,44.801674200000036],[-93.01924259999998,44.80053070000008],[-93.02152319999999,44.79788210000004],[-93.02262899999994,44.796014100000036],[-93.02397659999997,44.79306410000004],[-93.02449609999996,44.79031560000004],[-93.02432819999996,44.78914260000005],[-93.02296239999998,44.78634180000006],[-93.02156369999994,44.78407100000004],[-93.01971729999997,44.77989420000006],[-93.01828779999994,44.77728780000007],[-93.01706739999997,44.775801700000045],[-93.01554219999997,44.774464300000034],[-93.01392329999999,44.77353670000008],[-93.01224559999997,44.77276010000003],[-93.00976349999996,44.77197250000006],[-93.00612239999998,44.77132670000003],[-93.00343969999994,44.77136690000003],[-93.00207549999999,44.77164140000008],[-92.99952349999995,44.77244170000006],[-92.99607949999995,44.77364040000003],[-92.99236479999996,44.77472800000004],[-92.98913839999994,44.77547090000007],[-92.98743699999994,44.77579080000004],[-92.98618599999998,44.77592610000005],[-92.98493409999998,44.77590310000005],[-92.98422779999999,44.775765800000045],[-92.97808769999995,44.774027800000056],[-92.97185289999999,44.772415300000034],[-92.96793719999994,44.771195800000044],[-92.96308489999996,44.76925740000007],[-92.96063529999998,44.76798690000004],[-92.95714379999998,44.76659140000004],[-92.95471459999999,44.76600150000007],[-92.95338829999997,44.76587660000007],[-92.95157649999999,44.76591610000003],[-92.95005789999999,44.76613180000004],[-92.94899469999996,44.76643180000008],[-92.94390859999999,44.768846600000074],[-92.94204179999997,44.77006800000004],[-92.93873149999996,44.77280390000004],[-92.93739309999995,44.774399000000074],[-92.93634649999996,44.775900500000034],[-92.93551629999996,44.77750930000008],[-92.93445819999994,44.77917250000007],[-92.93340409999996,44.78043160000004],[-92.93207539999997,44.78153720000006],[-92.93087899999995,44.78214000000003],[-92.92860569999999,44.78274030000006],[-92.92761249999995,44.782891300000074],[-92.92609999999996,44.782962300000065],[-92.92524879999996,44.78283110000007],[-92.92366969999995,44.78235360000008],[-92.92248969999997,44.781656300000066],[-92.92212489999997,44.781408800000065],[-92.91991699999994,44.77911730000005],[-92.91926399999994,44.778544700000054],[-92.91727789999999,44.77718600000003],[-92.91599139999994,44.776422000000025],[-92.91406759999995,44.77540480000005],[-92.91254359999994,44.774843400000066],[-92.91040969999995,44.774258700000075],[-92.90590049999997,44.77360340000007],[-92.90283529999994,44.77334930000006],[-92.89986589999995,44.77340390000006],[-92.88957549999998,44.77443480000005],[-92.88753679999996,44.77459290000007],[-92.88612429999995,44.774568600000066],[-92.88485649999996,44.77448730000003],[-92.88261009999997,44.77410770000006],[-92.88068529999998,44.773488400000076],[-92.87903479999994,44.77271890000003],[-92.87730349999998,44.77171090000007],[-92.87600579999997,44.77061190000006],[-92.87510889999999,44.76974210000003],[-92.87419669999997,44.768529200000046],[-92.87307699999997,44.766311700000074],[-92.87184799999994,44.763257700000054],[-92.87132019999996,44.76245680000005],[-92.86235419999997,44.75381450000003],[-92.86142629999995,44.75268150000005],[-92.85897779999999,44.750037500000076],[-92.85654459999995,44.74782790000006],[-92.85543959999995,44.747037600000056],[-92.85468759999998,44.74665760000005],[-92.85311509999997,44.74632580000008],[-92.85224889999995,44.746267500000044],[-92.84938439999996,44.74631320000003],[-92.84007659999997,44.74695770000005],[-92.83803219999999,44.74720860000008],[-92.83589709999995,44.74769720000006],[-92.83522259999995,44.74791350000004],[-92.82924789999998,44.75014550000003],[-92.82719289999994,44.75061120000004],[-92.82597339999995,44.750655100000074],[-92.82325689999999,44.75021900000007],[-92.81782809999999,44.74901890000007],[-92.80987519999996,44.74753110000006],[-92.80689349999994,44.746817200000066],[-92.80432229999997,44.74603580000007],[-92.80263249999996,44.74525330000006],[-92.79902949999996,44.74334920000007],[-92.79627499999998,44.741665400000045],[-92.79372099999995,44.739828000000045],[-92.79129629999994,44.73828860000003],[-92.78964439999999,44.737497000000076],[-92.78667079999997,44.736468700000046],[-92.77742359999996,44.733912900000064],[-92.77251989999996,44.73280570000003],[-92.77122229999998,44.73239150000006],[-92.77038969999995,44.73203540000003],[-92.76805389999998,44.73054440000004],[-92.76317729999994,44.726841500000035],[-92.76194569999996,44.72602720000003],[-92.75922239999994,44.72467970000008],[-92.75625159999998,44.72365770000005],[-92.75464449999998,44.72323360000007],[-92.75312249999996,44.722875900000076],[-92.75051039999994,44.72243570000006],[-92.74867439999997,44.72199820000003],[-92.73779739999998,44.71802840000004],[-92.73514069999999,44.716913300000044],[-92.73365429999996,44.715858000000026],[-92.73260019999998,44.714940900000045],[-92.72979339999995,44.71167580000008],[-92.72840409999998,44.71046060000003],[-92.72704579999998,44.70950850000003],[-92.71988579999999,44.70479210000008],[-92.71648119999998,44.70272580000005],[-92.71509009999994,44.701990600000045],[-92.71350659999996,44.701266400000065],[-92.71057839999997,44.700184300000046],[-92.70829069999996,44.699275200000045],[-92.70752309999995,44.69889600000005],[-92.70531939999995,44.697243900000046],[-92.70048739999999,44.69239520000008],[-92.69897099999997,44.69119070000005],[-92.69606369999997,44.68933090000007],[-92.69106119999998,44.68667640000007],[-92.68955949999997,44.68579200000005],[-92.68820169999998,44.684965100000056],[-92.68626999999998,44.68357640000005],[-92.68516939999995,44.682624400000066],[-92.68373489999999,44.68119130000008],[-92.67811819999997,44.673949900000025],[-92.67703589999996,44.67264350000005],[-92.67478929999999,44.67037330000005],[-92.67324609999997,44.66933790000007],[-92.67002669999994,44.66757730000006],[-92.66843899999998,44.666620100000046],[-92.66676589999997,44.66557060000008],[-92.66547949999995,44.664645000000064],[-92.66144139999994,44.661105200000065],[-92.66059089999999,44.66014890000008],[-92.65901339999994,44.65863420000005],[-92.65854189999999,44.65829480000008],[-92.65706549999999,44.657367700000066],[-92.65455729999996,44.65625120000004],[-92.65279929999997,44.655582700000025],[-92.64515839999996,44.65299820000007],[-92.64191929999998,44.65212930000007],[-92.63999229999996,44.651793000000055],[-92.63692149999997,44.65109380000007],[-92.63481179999997,44.65035880000005],[-92.63343789999999,44.64979420000003],[-92.63238469999999,44.64918480000006],[-92.63109529999997,44.647934500000076],[-92.62845149999998,44.64452750000004],[-92.62738239999999,44.643448600000056],[-92.62426999999997,44.64089220000005],[-92.62345679999999,44.64034080000005],[-92.62098829999996,44.638251800000035],[-92.62052719999997,44.637747200000035],[-92.61973479999995,44.63648690000008],[-92.61916629999996,44.635261600000035],[-92.61888459999994,44.634266000000025],[-92.61888039999997,44.632471000000066],[-92.61914979999995,44.630448200000046],[-92.62013139999999,44.62722730000007],[-92.62279929999994,44.62071920000005],[-92.62337089999994,44.618971800000054],[-92.62339609999998,44.61754270000006],[-92.62311539999996,44.61639850000006],[-92.62289479999998,44.615849000000026],[-92.62200569999999,44.61472560000004],[-92.62038229999996,44.61347220000005],[-92.61751219999996,44.61179340000007],[-92.61625079999999,44.61132040000007],[-92.61406019999998,44.61082310000006],[-92.60629169999999,44.60931030000006],[-92.60179949999997,44.60854010000003],[-92.59705299999996,44.60751740000006],[-92.59514099999996,44.607019800000046],[-92.58989389999994,44.60595980000005],[-92.58747969999996,44.60560810000004],[-92.58567239999996,44.60544150000004],[-92.57683929999996,44.60527190000005],[-92.57440799999995,44.60509140000005],[-92.57197749999995,44.604807900000026],[-92.56972489999998,44.60426210000003],[-92.56889519999999,44.60392740000003],[-92.56720589999998,44.60297200000008],[-92.56661799999995,44.60239820000004],[-92.56448389999997,44.59886860000006],[-92.56280629999998,44.59638120000005],[-92.55796049999998,44.589696900000035],[-92.55567719999999,44.58697840000008],[-92.55102589999996,44.58224960000007],[-92.55002709999997,44.58106810000004],[-92.54960049999994,44.58038040000008],[-92.54897269999998,44.57882300000006],[-92.54891119999996,44.578116900000055],[-92.54900169999996,44.57753340000005],[-92.55083409999997,44.57391400000006],[-92.55135549999994,44.57266980000003],[-92.55153819999998,44.571790200000066],[-92.55157739999999,44.57085280000007],[-92.55132859999998,44.569925700000056],[-92.55058509999998,44.56885950000003],[-92.54999729999997,44.56834270000007],[-92.54905749999995,44.56784730000004],[-92.54797289999999,44.567465800000036],[-92.54608859999996,44.56708100000003],[-92.54306889999998,44.566680200000064],[-92.54097299999995,44.56677470000005],[-92.54026839999995,44.566886200000056],[-92.53676979999995,44.568404100000066],[-92.53362669999996,44.57018940000006],[-92.53087439999996,44.57158140000007],[-92.52695669999997,44.57342890000007],[-92.52264139999994,44.57495440000008],[-92.52115119999996,44.57526830000006],[-92.51878239999996,44.57544130000008],[-92.51686569999998,44.57510160000004],[-92.51598859999996,44.57477780000005],[-92.51417489999994,44.57360390000008],[-92.51059739999994,44.57103900000004],[-92.50852369999996,44.570145600000046],[-92.50654799999995,44.569478100000026],[-92.50282999999996,44.56845580000004],[-92.49753079999994,44.56719780000003],[-92.49440169999997,44.56654370000007],[-92.49299539999998,44.56641170000006],[-92.49093249999999,44.56637970000003],[-92.48925449999996,44.566588800000034],[-92.48626929999995,44.567422100000044],[-92.48435989999996,44.56811090000008],[-92.48323819999996,44.568357400000025],[-92.48216559999997,44.56846690000003],[-92.48123789999994,44.56847410000006],[-92.47920909999999,44.568201900000076],[-92.47686309999995,44.56763090000004],[-92.47041799999994,44.56581760000006],[-92.45967169999994,44.56310350000007],[-92.45563829999998,44.56237760000005],[-92.45362039999998,44.56215290000006],[-92.45185859999998,44.562113700000054],[-92.44793079999994,44.56249840000004],[-92.44172279999998,44.562811200000056],[-92.43790069999994,44.56279250000006],[-92.43678399999999,44.562692800000036],[-92.43488609999997,44.56237840000006],[-92.43367909999995,44.56197320000007],[-92.43273689999995,44.56156670000007],[-92.43142559999995,44.560878400000036],[-92.43019239999995,44.56005780000004],[-92.42906569999997,44.55917160000007],[-92.42665959999994,44.55669390000003],[-92.42575589999996,44.55601050000007],[-92.42558419999995,44.55579640000008],[-92.42404999999997,44.554779600000074],[-92.42183989999995,44.55383920000003],[-92.41921439999999,44.55305720000007],[-92.41153539999999,44.550175300000035],[-92.40755119999994,44.54898710000003],[-92.40275049999997,44.54782510000007],[-92.39808439999996,44.54680010000004],[-92.39206279999996,44.545952800000066],[-92.38714219999997,44.54560630000003],[-92.38087799999994,44.54532100000006],[-92.37405209999997,44.54523810000006],[-92.36398359999998,44.54489660000007],[-92.35368039999997,44.544107000000054],[-92.34541389999998,44.54276800000008],[-92.33900409999995,44.541267600000026],[-92.33321979999994,44.53962190000004],[-92.32839719999998,44.537775700000054],[-92.32084079999998,44.53323770000003],[-92.31564749999995,44.528999200000044],[-92.30753569999996,44.51958630000007],[-92.30193709999998,44.51200620000003],[-92.29006739999994,44.49469140000008],[-92.28559819999998,44.489175500000044],[-92.27682339999996,44.48061370000005],[-92.27101349999998,44.475225900000055],[-92.26335549999999,44.46959720000007],[-92.23261829999996,44.45137560000006],[-92.22418289999996,44.44711100000006],[-92.20850709999996,44.440189100000055],[-92.19053159999999,44.43366030000004],[-92.17210769999997,44.42753700000003],[-92.15285289999997,44.42177050000004],[-92.11525829999994,44.41295860000008],[-92.11054559999997,44.41223100000008],[-92.10224169999998,44.411352700000066],[-92.09740509999995,44.410537100000056],[-92.09289029999997,44.40955230000003],[-92.08679429999995,44.40768580000008],[-92.07769279999997,44.40448880000008],[-92.07581839999995,44.40415050000007],[-92.07375769999999,44.40397920000004],[-92.07173219999999,44.40397420000005],[-92.06547429999995,44.40434620000008],[-92.06344879999995,44.404341000000045],[-92.06142589999996,44.404175800000075],[-92.05974029999999,44.40386470000004],[-92.05818329999994,44.40348600000004],[-92.05658149999994,44.402923900000076],[-92.05447549999997,44.40198040000007],[-92.05310529999997,44.40090570000007],[-92.04759729999995,44.39537180000008],[-92.04506289999995,44.39333830000004],[-92.04120209999996,44.39051610000007],[-92.03763359999994,44.38837090000004],[-92.03603099999998,44.38750610000005],[-92.03276279999994,44.38592870000008],[-92.02916819999996,44.38443470000004],[-92.02382949999998,44.38244700000007],[-92.02202049999994,44.381880900000056],[-92.01799919999996,44.38111490000006],[-92.01029339999997,44.37998310000006],[-92.00815849999998,44.37958790000005],[-92.00618619999995,44.37913610000004],[-92.00522139999998,44.378837900000065],[-92.00449859999998,44.37857070000007],[-92.00294349999996,44.377691500000026],[-91.99908349999998,44.37500520000003],[-91.99738039999994,44.37391550000007],[-91.99562529999997,44.37290000000007],[-91.99242179999999,44.37121990000003],[-91.99072639999997,44.37058680000007],[-91.98688749999997,44.369512400000076],[-91.98281899999995,44.368813000000046],[-91.97893609999994,44.368405100000075],[-91.97712349999995,44.36809900000003],[-91.97331659999998,44.36712730000005],[-91.97161539999996,44.36657160000004],[-91.96991099999997,44.36590750000005],[-91.96801539999996,44.36494140000008],[-91.96508189999997,44.363177000000064],[-91.96113029999998,44.36040840000004],[-91.95691869999996,44.35705430000007],[-91.95555439999998,44.35580700000003],[-91.95302339999995,44.35344880000008],[-91.95072409999995,44.35102240000003],[-91.94797409999995,44.34749370000003],[-91.94491699999998,44.34378190000007],[-91.94384709999997,44.34264180000008],[-91.94269399999996,44.34164580000004],[-91.93982699999998,44.33981490000008],[-91.93839059999999,44.33906980000006],[-91.93622509999994,44.33812350000005],[-91.93259819999997,44.33694630000008],[-91.92774139999995,44.335623500000054],[-91.92669969999997,44.33517900000004],[-91.92538599999995,44.33415240000005],[-91.92337169999996,44.33169910000004],[-91.92034169999994,44.32770700000003],[-91.91822519999994,44.32413100000008],[-91.91552269999994,44.31866290000005],[-91.91327909999995,44.31338200000005],[-91.91304539999999,44.312236400000074],[-91.91293269999994,44.31057750000008],[-91.91315349999996,44.30896740000003],[-91.91360269999996,44.30755330000005],[-91.91443529999998,44.306170200000054],[-91.91542719999995,44.30490450000008],[-91.91646909999997,44.30383710000007],[-91.91764199999994,44.302888100000075],[-91.92204929999997,44.29962240000003],[-91.92310979999996,44.29853670000006],[-91.92429779999998,44.29664810000003],[-91.92481799999996,44.29541440000003],[-91.92494329999994,44.29463240000007],[-91.92497439999994,44.292946200000074],[-91.92477769999994,44.29151510000003],[-91.92426099999994,44.290172400000074],[-91.92330219999997,44.28863130000008],[-91.92241549999994,44.28750240000005],[-91.92130339999994,44.28652000000005],[-91.92004439999994,44.28573060000008],[-91.91833929999996,44.28497130000005],[-91.91650379999999,44.28438220000004],[-91.91309879999994,44.28345800000005],[-91.90744259999997,44.282054800000026],[-91.90418209999996,44.28107460000007],[-91.90279159999994,44.280535300000054],[-91.89987329999997,44.27913520000004],[-91.89894599999997,44.278508800000054],[-91.89764469999994,44.27745580000004],[-91.89669569999995,44.27629180000008],[-91.89617249999998,44.27533770000008],[-91.89592589999995,44.27405470000008],[-91.89602899999994,44.27195190000003],[-91.89661089999998,44.26636640000004],[-91.89645699999994,44.26438680000007],[-91.89623889999996,44.26328700000005],[-91.89556629999998,44.261817000000065],[-91.89480479999997,44.26084920000005],[-91.89355219999999,44.25977370000004],[-91.89029749999997,44.25771830000008],[-91.88889629999994,44.256571500000064],[-91.88793909999998,44.255385800000056],[-91.88756919999997,44.25475330000006],[-91.88708219999995,44.25358230000006],[-91.88669589999995,44.25129170000008],[-91.88687049999999,44.24962410000006],[-91.88713429999996,44.248288900000034],[-91.88748019999997,44.24681730000003],[-91.88822109999995,44.244640600000025],[-91.88853729999994,44.24390050000005],[-91.88990449999994,44.24139830000007],[-91.89285539999997,44.236704700000075],[-91.89317109999996,44.23598750000008],[-91.89336549999996,44.234681400000056],[-91.89330179999996,44.23325600000004],[-91.89257389999995,44.23035120000003],[-91.89183819999994,44.22904560000006],[-91.89010759999996,44.22647280000007],[-91.88809939999999,44.22408120000006],[-91.88616509999997,44.22209570000007],[-91.87988289999998,44.21631730000007],[-91.87868199999997,44.21509350000008],[-91.87757889999995,44.21374490000005],[-91.87719369999996,44.21310080000006],[-91.87656849999996,44.211699700000054],[-91.87623669999994,44.21075890000003],[-91.87605369999994,44.20951070000007],[-91.87603279999996,44.20810420000004],[-91.87623469999994,44.203797500000064],[-91.87607109999999,44.201879500000075],[-91.87555629999997,44.20056450000004],[-91.87464069999999,44.19940060000005],[-91.87255069999998,44.197626600000035],[-91.87103359999998,44.19690940000004],[-91.86966639999997,44.19641550000006],[-91.86658669999997,44.19569960000007],[-91.86257079999996,44.194637700000044],[-91.86122549999999,44.194077400000026],[-91.85982179999996,44.19335380000007],[-91.85721369999999,44.19156850000007],[-91.85321549999998,44.18862390000004],[-91.85063879999996,44.18695710000003],[-91.84851579999997,44.18573100000003],[-91.84720099999998,44.18508600000007],[-91.84338189999994,44.183580300000074],[-91.83425729999999,44.180597300000045],[-91.83052109999994,44.17902350000003],[-91.82816499999996,44.177716100000055],[-91.82698409999995,44.17652190000007],[-91.82580109999998,44.17494020000004],[-91.82403899999997,44.17242980000003],[-91.82074549999999,44.16736640000005],[-91.81820969999995,44.164014000000066],[-91.81702629999995,44.16282410000008],[-91.81608899999998,44.16203690000003],[-91.80971539999996,44.15908920000004],[-91.80393279999998,44.15678770000005],[-91.79861849999998,44.154914000000076],[-91.78561209999998,44.15100320000005],[-91.78402409999995,44.15042020000004],[-91.78210319999994,44.14987810000008],[-91.77678939999998,44.147966600000075],[-91.77335169999998,44.146424300000035],[-91.77033549999999,44.144848300000035],[-91.76555949999994,44.14219450000007],[-91.76086859999998,44.13941960000005],[-91.75763969999997,44.137678900000026],[-91.75432399999994,44.13604200000003],[-91.75092409999996,44.134644200000025],[-91.74926879999998,44.13416350000006],[-91.74703419999997,44.133904200000075],[-91.74493949999999,44.13385830000004],[-91.74131689999996,44.13399000000004],[-91.73818909999994,44.13400120000006],[-91.73355799999996,44.13377840000004],[-91.73013709999998,44.13338600000003],[-91.72623189999996,44.13263360000008],[-91.72435279999996,44.13216670000003],[-91.72260309999996,44.13158690000006],[-91.72076559999994,44.13066300000003],[-91.71799909999999,44.128653900000074],[-91.71684789999995,44.12756610000008],[-91.71482019999996,44.125176500000066],[-91.71196299999997,44.12151970000008],[-91.71070289999994,44.12011380000007],[-91.70918069999999,44.118812700000035],[-91.70702259999996,44.117537500000026],[-91.70541709999998,44.11679030000005],[-91.70060089999998,44.114190000000065],[-91.69946119999997,44.113270200000045],[-91.69888939999998,44.11270010000004],[-91.69856229999994,44.112035700000035],[-91.69845099999998,44.11137380000008],[-91.69843559999998,44.11043440000003],[-91.69857149999996,44.10956800000008],[-91.69884679999996,44.10849590000004],[-91.69966899999997,44.10625760000005],[-91.70068809999998,44.104044000000044],[-91.70097499999997,44.10310190000007],[-91.70102519999995,44.102612100000044],[-91.70097989999994,44.10197900000003],[-91.70056899999997,44.10092240000006],[-91.69960309999999,44.09993080000004],[-91.69885329999994,44.09941680000003],[-91.69709039999998,44.09841650000004],[-91.69625279999997,44.09808310000005],[-91.69467059999994,44.09768930000007],[-91.69357639999998,44.097579600000074],[-91.69195769999999,44.09761940000004],[-91.68725679999994,44.09827310000003],[-91.68503159999995,44.09840170000007],[-91.68381219999998,44.09829620000005],[-91.68247239999994,44.097943600000065],[-91.68066839999994,44.09696780000007],[-91.67998109999996,44.09647970000003],[-91.67670259999994,44.093377400000065],[-91.67026229999999,44.08766550000007],[-91.66813039999994,44.08582260000003],[-91.66674149999994,44.084800200000075],[-91.66565449999996,44.083758500000044],[-91.66386129999995,44.08097040000007],[-91.66253729999994,44.07848510000008],[-91.66129969999997,44.075692100000026],[-91.66046109999996,44.07419580000004],[-91.65966189999995,44.073065900000074],[-91.65876009999994,44.072266400000046],[-91.65768339999994,44.07148760000007],[-91.65630649999997,44.070659600000056],[-91.65365629999997,44.06933630000003],[-91.65252919999995,44.06868270000007],[-91.65137569999996,44.067800100000056],[-91.65030879999995,44.06659840000003],[-91.64958859999996,44.06549220000005],[-91.64823489999998,44.06296060000005],[-91.64740769999997,44.06168160000004],[-91.64550539999999,44.059542700000065],[-91.64303199999995,44.05817660000008],[-91.64131909999998,44.05750450000005],[-91.63690929999996,44.056205600000055],[-91.63492179999997,44.055758800000035],[-91.63017929999995,44.054925800000035],[-91.62285419999995,44.05378450000006],[-91.61745829999995,44.05242510000005],[-91.61603169999995,44.05195260000005],[-91.61395289999996,44.05110750000006],[-91.61215849999996,44.050121800000056],[-91.61058019999996,44.04914220000006],[-91.60593579999994,44.04573540000007],[-91.60455859999996,44.044300700000065],[-91.60369549999996,44.04324960000008],[-91.60094319999996,44.03874780000007],[-91.59957029999998,44.036681600000065],[-91.59858739999999,44.03534320000006],[-91.59755269999994,44.03418700000003],[-91.59649819999998,44.03320220000006],[-91.59508229999994,44.03208710000007],[-91.59342709999999,44.03103760000005],[-91.59164039999996,44.03019230000007],[-91.58939639999994,44.029249900000025],[-91.58718149999999,44.02842210000006],[-91.58340419999996,44.02732340000006],[-91.58193839999996,44.02698510000005],[-91.57885619999996,44.026649500000076],[-91.57128719999997,44.026395000000036],[-91.56638599999997,44.02596210000007],[-91.56309889999994,44.025537600000064],[-91.55946849999998,44.024943000000064],[-91.55355409999999,44.02378200000004],[-91.54971099999995,44.02281860000005],[-91.54558029999998,44.02195420000004],[-91.54096899999996,44.021312300000034],[-91.53600329999995,44.02090570000007],[-91.53098149999994,44.020852700000034],[-91.52325249999996,44.021336200000064],[-91.51811349999997,44.02153260000006],[-91.51502879999998,44.02132100000006],[-91.51215609999997,44.020872000000054],[-91.51065829999999,44.02056660000005],[-91.50853419999999,44.01996720000005],[-91.50632159999998,44.01910360000005],[-91.50292429999996,44.01746980000007],[-91.49998879999998,44.01575040000006],[-91.49771519999996,44.01417690000005],[-91.49174319999997,44.009753200000034],[-91.49007209999996,44.00880490000003],[-91.48900349999997,44.00845920000006],[-91.48690069999998,44.008197100000075],[-91.48318739999996,44.00791330000004],[-91.48097279999996,44.00778100000008],[-91.47652409999995,44.007664600000055],[-91.47406669999998,44.00773470000007],[-91.46912409999999,44.00834320000007],[-91.46480299999996,44.008662300000026],[-91.46345379999997,44.00867240000008],[-91.46224539999997,44.008529200000055],[-91.46092269999997,44.008271500000035],[-91.45493259999995,44.00637980000005],[-91.44247809999996,44.002849000000026],[-91.44102329999998,44.00214310000007],[-91.43441489999998,43.99802790000007],[-91.43205579999994,43.99618880000003],[-91.42929229999999,43.99286920000003],[-91.42801309999999,43.99093060000007],[-91.42585419999995,43.98692170000004],[-91.42370179999995,43.98327880000005],[-91.42274299999997,43.98181340000008],[-91.42208319999997,43.98101530000008],[-91.42104959999995,43.97998340000004],[-91.41977719999994,43.97888800000004],[-91.41400979999997,43.97437450000007],[-91.41113569999999,43.97186920000007],[-91.40936259999995,43.96993050000003],[-91.40737629999995,43.96723870000005],[-91.40522669999996,43.96474440000003],[-91.40406839999997,43.963659300000074],[-91.40291759999997,43.962888500000076],[-91.39978169999995,43.96117520000007],[-91.39099319999997,43.95717550000006],[-91.38852739999999,43.95587150000006],[-91.38497869999998,43.953823800000066],[-91.38283129999996,43.95229210000008],[-91.38067859999995,43.95054650000003],[-91.37896849999998,43.94882990000008],[-91.37627839999999,43.94532710000004],[-91.37240829999996,43.93984070000005],[-91.37124669999997,43.93833760000007],[-91.36707359999997,43.93333370000005],[-91.36474929999997,43.93078550000007],[-91.36393929999997,43.92961470000006],[-91.36272159999999,43.92723870000003],[-91.36151299999995,43.924508100000025],[-91.36064879999998,43.922063500000036],[-91.35992589999995,43.92073810000005],[-91.35856469999999,43.91903770000005],[-91.35724179999994,43.91798390000008],[-91.34960459999996,43.913557300000036],[-91.34826919999995,43.912657600000045],[-91.34664649999996,43.91128480000003],[-91.34605719999996,43.91069300000004],[-91.34550469999994,43.909678900000074],[-91.34493019999996,43.90814980000005],[-91.34401349999996,43.90470620000008],[-91.34322419999995,43.90237350000007],[-91.34219859999996,43.89950820000007],[-91.34099779999997,43.89655540000007],[-91.33968059999995,43.89388340000005],[-91.33818799999995,43.89126610000005],[-91.33747599999998,43.89014660000004],[-91.33581339999995,43.88796120000006],[-91.33483289999998,43.88683780000008],[-91.33246779999996,43.88490520000005],[-91.32673309999996,43.88136810000003],[-91.32388089999995,43.87934810000007],[-91.32264499999997,43.87832380000003],[-91.31902319999995,43.87501170000007],[-91.31454319999995,43.87076060000004],[-91.31089909999997,43.867150700000025],[-91.30694149999994,43.863467300000025],[-91.30562819999994,43.86240730000003],[-91.30446349999994,43.861681100000055],[-91.30173619999994,43.85977680000008],[-91.30057839999995,43.85881050000006],[-91.29942039999997,43.85729530000003],[-91.29717469999997,43.85255260000008],[-91.29473549999994,43.84802950000005],[-91.29356659999996,43.84645960000006],[-91.29286159999998,43.84569430000005],[-91.28975469999995,43.84271330000007],[-91.28843359999996,43.841302400000075],[-91.28666779999998,43.83853510000006],[-91.28584579999995,43.836899000000074],[-91.28482589999999,43.83555730000006],[-91.28357009999996,43.834177700000055],[-91.28238279999994,43.83316510000003],[-91.27967189999998,43.83130620000003],[-91.27674869999998,43.829695600000036],[-91.27152499999994,43.82735260000004],[-91.26928389999995,43.826198100000056],[-91.26829139999995,43.82556560000006],[-91.26542899999998,43.823509700000045],[-91.26285169999994,43.82143520000005],[-91.26056119999998,43.819822300000055],[-91.25885749999998,43.81812690000004],[-91.25833329999995,43.817147000000034],[-91.25804789999995,43.81632440000004],[-91.25808399999994,43.81485630000003],[-91.25827359999994,43.81322400000005],[-91.26042899999999,43.80479520000006],[-91.26240679999995,43.798113200000046],[-91.26284249999998,43.79590710000008],[-91.26274869999997,43.793944700000054],[-91.26241789999995,43.792830500000036],[-91.26192739999999,43.79178250000007],[-91.26124479999999,43.79082310000007],[-91.25903979999998,43.788202100000035],[-91.25453279999994,43.78447750000004],[-91.24797069999994,43.77948760000004],[-91.24625819999994,43.77806940000005],[-91.24364059999994,43.77533420000003],[-91.24320459999996,43.77459570000008],[-91.24254729999996,43.772790400000076],[-91.24254119999995,43.77138380000008],[-91.24268909999995,43.770642800000076],[-91.24310289999994,43.769986000000074],[-91.24506469999994,43.76767730000006]]},"properties":{"source":"USACE IENC layer 46 RECOMMENDED_TRACK_LINE (Primary Sailing Line)","source_url":"https://ienccloud.us/arcgis/rest/services/IENC/USACE_IENC_Master_Service/MapServer/46","bbox_query":[-93.35,44.0,-91.55,45.06],"vertex_count":1060,"rm_per_vertex":[916.1,916.0,915.97,915.91,915.84,915.8,915.74,915.5,915.26,915.21,915.14,915.1,915.04,914.94,914.9,914.83,914.71,914.49,914.3,914.24,914.14,914.05,913.98,913.89,913.84,913.72,913.17,912.99,912.89,912.83,912.77,912.71,912.41,911.88,911.8,911.61,911.35,911.05,910.98,910.9,910.55,910.18,910.04,909.86,909.65,909.54,909.44,909.36,909.22,909.11,908.99,908.89,908.77,908.67,908.58,908.34,908.06,907.95,907.44,907.11,906.71,906.53,906.45,906.36,906.3,906.13,906.04,905.83,905.55,905.4,905.12,904.86,904.49,904.37,904.05,903.9,903.73,903.24,903.14,903.02,902.88,902.26,901.79,901.59,901.45,900.65,900.5,900.32,900.15,899.94,899.52,899.37,899.2,899.07,898.92,898.78,898.67,898.59,898.4,898.22,898.08,897.92,897.84,897.64,897.55,897.46,897.38,897.25,897.11,896.98,896.86,896.61,896.26,895.91,895.73,895.57,895.28,895.01,894.88,894.4,894.3,894.24,894.12,893.91,893.73,893.25,885.59,885.41,885.33,885.02,884.96,884.83,863.0,862.7,862.37,862.16,861.84,861.44,861.19,861.03,860.69,860.06,859.91,859.57,859.42,859.32,859.17,859.09,859.0,858.77,858.59,858.34,858.25,857.85,857.76,857.44,857.32,857.25,857.0,856.82,856.71,856.43,856.05,855.95,855.86,855.72,855.63,855.48,855.18,855.08,855.0,854.89,854.85,854.75,854.41,854.3,854.1,854.03,853.93,853.77,853.65,853.3,853.15,853.0,852.84,852.75,852.43,852.14,851.98,851.82,851.67,851.51,851.44,851.31,851.12,850.98,850.52,850.04,849.72,849.42,848.79,848.63,848.32,848.04,847.6,847.41,847.14,847.08,846.99,846.92,846.74,846.56,846.49,846.44,846.24,846.1,846.04,845.94,845.85,845.8,845.76,845.69,845.52,845.19,845.0,844.83,844.7,844.62,844.5,844.25,844.21,844.18,844.12,844.01,843.91,843.81,843.71,843.61,843.08,842.97,842.9,842.8,842.69,842.6,842.49,842.19,842.07,841.89,841.77,841.68,841.59,841.49,841.29,841.22,841.02,840.97,840.92,840.66,840.44,840.26,840.08,839.72,839.55,839.47,839.39,839.01,838.57,838.53,838.46,838.26,838.21,838.15,837.86,837.65,837.49,837.33,837.24,837.14,837.05,836.96,836.76,836.59,836.51,836.43,836.32,836.02,835.81,835.74,835.7,835.61,835.09,834.93,834.62,834.49,834.41,834.25,833.97,833.87,833.7,833.43,833.16,833.11,833.02,832.8,832.67,832.49,832.27,832.15,832.09,831.77,831.65,831.58,831.4,831.27,831.0,830.88,830.81,830.62,830.4,830.19,829.88,829.51,829.39,829.13,829.01,828.92,828.83,828.59,828.38,828.27,828.0,827.81,827.72,827.63,827.55,827.41,827.29,827.18,827.09,826.88,826.8,826.64,826.51,826.28,826.2,826.09,825.87,825.73,825.51,825.31,825.22,825.01,824.84,824.53,824.33,824.2,824.08,823.98,823.88,823.74,823.55,823.41,823.34,823.2,823.01,822.8,822.63,822.54,822.48,822.42,822.38,822.05,821.71,821.49,821.21,821.06,820.86,820.73,820.66,820.57,820.49,820.43,820.12,820.0,819.74,819.61,819.49,819.37,819.24,819.13,819.03,818.95,818.83,818.78,818.7,818.66,818.57,818.5,818.47,818.27,818.22,818.08,818.0,817.87,817.79,817.67,817.44,817.28,817.13,816.61,816.51,816.43,816.37,816.25,816.15,816.05,815.93,815.83,815.75,815.66,815.49,815.26,815.2,814.66,814.6,814.44,814.3,814.25,814.21,814.15,814.12,814.02,813.69,813.62,813.54,813.51,813.27,813.2,813.15,813.05,812.85,812.56,812.45,812.35,812.28,812.12,811.99,811.86,811.75,811.68,811.56,811.21,811.02,810.97,810.94,810.83,810.58,810.52,810.4,810.28,810.22,810.16,810.07,810.0,809.28,809.1,808.97,808.88,808.56,808.43,808.32,807.74,807.48,807.37,807.26,807.07,806.91,806.86,806.67,806.18,806.04,805.81,805.44,805.33,805.22,805.06,804.96,804.81,804.13,804.0,803.77,803.64,803.41,803.28,803.15,803.04,802.66,802.57,802.41,802.37,802.26,802.08,801.97,801.47,801.26,801.15,800.96,800.82,800.72,800.64,800.51,800.19,800.08,799.8,799.73,799.51,799.46,799.34,799.24,799.15,799.0,798.83,798.56,798.0,797.85,797.73,797.64,797.59,797.48,797.34,797.12,797.04,796.9,796.58,796.4,796.2,796.12,795.91,795.81,795.74,795.39,795.29,795.19,795.1,795.06,794.97,794.94,794.72,794.57,794.15,793.97,793.65,793.58,793.53,793.44,793.41,793.37,793.16,793.09,793.04,792.98,792.93,792.87,792.83,792.78,792.73,792.66,792.54,792.45,792.42,792.26,792.1,791.97,791.78,791.59,791.53,791.44,791.36,791.32,791.22,791.02,790.92,790.84,790.68,790.46,790.33,790.27,790.19,790.12,790.0,789.91,789.87,789.82,789.79,789.7,789.61,789.33,788.88,788.72,788.63,788.57,788.41,788.16,788.01,787.97,787.89,787.84,787.79,787.73,787.66,787.59,787.43,787.37,787.36,787.28,787.18,787.06,786.72,786.55,786.35,786.15,785.91,785.71,785.47,785.2,784.8,784.39,784.05,783.78,783.54,783.32,782.93,782.61,782.0,781.41,780.07,779.63,778.89,778.42,777.87,775.89,775.38,774.47,773.47,772.46,771.43,769.47,769.23,768.81,768.57,768.33,768.0,767.5,767.08,766.63,766.19,764.83,764.39,763.94,763.57,763.21,762.82,762.28,761.84,759.77,758.95,757.75,756.73,756.3,755.44,754.54,753.23,752.8,752.69,752.47,752.41,752.35,752.33,752.3,752.25,752.1,752.04,751.98,751.87,751.82,751.7,751.59,751.48,751.43,751.32,751.27,751.22,751.15,751.05,750.9,750.72,750.66,750.55,750.44,750.28,750.12,750.06,750.01,749.91,749.86,749.79,749.68,749.54,749.51,749.45,749.34,749.17,749.02,748.8,748.59,748.54,748.48,748.42,748.36,748.31,748.25,748.2,748.15,747.98,747.93,747.85,747.8,747.77,747.7,747.65,747.6,747.53,747.48,747.43,747.39,747.33,747.28,747.18,747.01,746.92,746.87,746.78,746.74,746.69,746.64,746.6,746.55,746.47,746.25,746.18,746.13,746.08,746.03,745.98,745.86,745.8,745.75,745.72,745.68,745.59,745.52,745.47,745.42,745.33,745.3,745.2,745.0,744.95,744.86,744.77,744.58,744.48,744.29,744.11,743.95,743.47,743.37,743.27,743.22,743.12,743.06,742.98,742.89,742.6,742.47,742.38,742.3,742.14,742.06,741.99,741.83,741.63,741.56,741.48,741.31,741.03,740.87,740.74,740.67,740.46,739.99,739.78,739.64,739.55,739.43,739.24,738.87,738.62,738.53,738.46,738.1,737.76,737.46,736.75,736.66,736.55,736.25,736.04,735.85,735.55,735.24,735.03,734.83,734.63,734.54,734.42,734.32,734.13,733.98,733.74,733.56,733.36,733.26,733.16,733.05,732.85,732.75,732.55,732.25,732.14,732.02,731.87,731.78,731.47,731.38,731.33,731.28,731.24,731.17,731.11,731.03,730.87,730.7,730.63,730.6,730.55,730.48,730.39,730.34,730.22,730.18,730.09,730.03,729.95,729.71,729.59,729.53,729.46,729.34,729.3,729.02,728.5,728.23,728.07,727.93,727.59,727.29,726.97,726.79,726.65,726.53,726.41,726.27,726.01,725.89,725.76,725.6,725.46,725.16,725.01,724.72,724.47,724.32,723.94,723.77,723.38,722.78,722.32,722.2,722.01,721.83,721.66,721.13,720.94,720.8,720.25,720.0,719.83,719.68,719.54,719.37,719.2,719.03,718.82,718.62,718.29,718.17,717.92,717.31,716.92,716.65,716.35,715.86,715.54,715.2,714.82,714.42,714.02,713.4,712.99,712.74,712.5,712.38,712.2,712.0,711.67,711.37,711.11,710.43,710.26,710.16,709.99,709.69,709.52,709.16,708.96,708.56,708.22,708.11,708.01,707.9,707.38,706.31,706.17,705.47,705.19,704.76,704.52,704.04,703.6,703.42,703.32,703.18,703.02,702.34,701.98,701.72,701.38,701.05,700.9,700.77,700.46,699.63,699.38,699.02,698.78,698.52,698.28,697.84,697.15,696.96,696.31,695.97,695.83,695.55,695.23,694.95,694.79,694.57,694.41,693.63,693.48,693.28,693.2,693.08,692.9,692.51,692.24,691.92,691.57,691.26,690.94,690.81,690.53,690.38,690.1,689.49,689.17,689.02,688.55,687.96,687.46,686.94,686.78,686.66,686.36,686.21,686.02,685.46,684.92,684.73,684.62,684.21,684.02,683.68,683.49,683.32,683.13,682.99,682.69,682.39,681.9,681.68,681.57,681.25,680.94,680.68,680.45,680.33,680.24,680.07,679.89,678.94,678.18,677.93,677.71,677.59,677.46,677.34,677.0,676.45,675.69,675.48,675.11,675.02,674.81,674.65,674.57,674.49,674.19],"rm_min":674.19,"rm_max":916.1,"raw_feature_count":23,"simplification":"Ramer-Douglas-Peucker eps=5m"}}],"generated_at":null,"honest_caveats":["Channel = USACE IENC 'Primary Sailing Line' for the deep-water tow route; recreational boats routinely leave this line for shallower water.","River-mile values are computed via cumulative arc-length along the channel, calibrated at a 6-point anchor axis (below Alma, Alma, Reads Landing, Frontenac, Red Wing, above Red Wing), accurate to ~0.5 RM and guaranteed monotonic by construction. Refresh anchors if you need tighter alignment.","Rebuild by refetching layer 46 for the same bbox and rerunning this script; USACE republishes monthly with LNM updates."]}